[{"OBJECT_NAME":"ORBITER SN3","OBJECT_ID":"2023-084AE","EPOCH":"2026-03-09T23:12:21.976128","MEAN_MOTION":15.32943891,"ECCENTRICITY":0.00075889,"INCLINATION":97.61,"RA_OF_ASC_NODE":206.6768,"ARG_OF_PERICENTER":331.7947,"MEAN_ANOMALY":28.2883,"EPHEMERIS_TYPE":0,"CLASSIFICATION_TYPE":"U","NORAD_CAT_ID":56960,"ELEMENT_SET_NO":999,"REV_AT_EPOCH":15228,"BSTAR":0.00032835432,"MEAN_MOTION_DOT":0.00010378,"MEAN_MOTION_DDOT":0},{"OBJECT_NAME":"STARLINK-35629","OBJECT_ID":"2025-237P","EPOCH":"2026-03-09T05:07:28.617024","MEAN_MOTION":15.30211335,"ECCENTRICITY":0.00013239,"INCLINATION":53.1591,"RA_OF_ASC_NODE":42.1174,"ARG_OF_PERICENTER":92.2864,"MEAN_ANOMALY":267.8288,"EPHEMERIS_TYPE":0,"CLASSIFICATION_TYPE":"U","NORAD_CAT_ID":66127,"ELEMENT_SET_NO":999,"REV_AT_EPOCH":2253,"BSTAR":0.0024749513,"MEAN_MOTION_DOT":0.00073697,"MEAN_MOTION_DDOT":0}]
